[
  {
    "name": "KUIPER-00230",
    "noradId": "68579",
    "line1": "1 68579U 26072G   26193.78615294  .00017693  00000+0  46580-3 0  9996",
    "line2": "2 68579  51.8768  52.7753 0002872 105.4440 254.6864 15.38616507 15326"
  },
  {
    "name": "KUIPER-00231",
    "noradId": "68580",
    "line1": "1 68580U 26072H   26193.83335647 -.00073506  00000+0 -59643-2 0  9995",
    "line2": "2 68580  51.8951  55.2851 0004107  29.7416 235.8513 14.99489381  5249"
  },
  {
    "name": "KUIPER-00234",
    "noradId": "68581",
    "line1": "1 68581U 26072J   26192.93836726  .00000681  00000+0  12708-3 0  9994",
    "line2": "2 68581  51.9002  81.1093 0000457 270.5002  89.5906 14.76588342 14854"
  },
  {
    "name": "KUIPER-00236",
    "noradId": "68582",
    "line1": "1 68582U 26072K   26193.80698773  .00025060  00000+0  66538-3 0  9998",
    "line2": "2 68582  51.8766  52.9144 0003572 106.9979 253.1400 15.38124460 15327"
  },
  {
    "name": "KUIPER-00244",
    "noradId": "68583",
    "line1": "1 68583U 26072L   26193.80094150 -.00000955  00000+0 -96247-4 0  9997",
    "line2": "2 68583  51.9007  67.3979 0001310 114.5274 245.5825 14.79921912 15129"
  },
  {
    "name": "KUIPER-00253",
    "noradId": "68584",
    "line1": "1 68584U 26072M   26193.66321019  .00000035  00000+0  33621-4 0  9993",
    "line2": "2 68584  51.9045  70.5100 0000753  96.3316 263.7732 14.79932995 15063"
  },
  {
    "name": "KUIPER-00254",
    "noradId": "68585",
    "line1": "1 68585U 26072N   26193.69427668  .00000337  00000+0  73275-4 0  9998",
    "line2": "2 68585  51.9040  72.8708 0001840 104.3012 255.8154 14.79932441 15032"
  },
  {
    "name": "KUIPER-00263",
    "noradId": "68586",
    "line1": "1 68586U 26072P   26193.83335647 -.00063829  00000+0 -72305-2 0  9998",
    "line2": "2 68586  51.8988  57.4683 0001646  31.9497 200.0291 14.86243746  5214"
  },
  {
    "name": "KUIPER-00269",
    "noradId": "68587",
    "line1": "1 68587U 26072Q   26193.83335647 -.00061820  00000+0 -81405-2 0  9999",
    "line2": "2 68587  51.9003  59.7522 0001120 173.6468 135.8313 14.80006576  5751"
  },
  {
    "name": "KUIPER-00272",
    "noradId": "68588",
    "line1": "1 68588U 26072R   26193.11220126  .00001915  00000+0  28012-3 0  9999",
    "line2": "2 68588  51.8983  82.9185 0000638 114.1691 245.9338 14.79925586 14841"
  },
  {
    "name": "KUIPER-00285",
    "noradId": "68589",
    "line1": "1 68589U 26072S   26193.83335647 -.00064282  00000+0 -84785-2 0  9990",
    "line2": "2 68589  51.9041  59.8030 0004473 124.9381   6.1641 14.79950078  5204"
  },
  {
    "name": "KUIPER-00286",
    "noradId": "68590",
    "line1": "1 68590U 26072T   26193.83335647 -.00060216  00000+0 -70684-2 0  9998",
    "line2": "2 68590  51.9005  56.9346 0003735  40.9125 236.9204 14.84752073  5880"
  },
  {
    "name": "KUIPER-00289",
    "noradId": "68591",
    "line1": "1 68591U 26072U   26193.80366150  .00000516  00000+0  96704-4 0  9997",
    "line2": "2 68591  51.8984  64.8761 0000823 137.6163 222.4863 14.79934164 15155"
  },
  {
    "name": "KUIPER-00290",
    "noradId": "68592",
    "line1": "1 68592U 26072V   26193.83335647 -.00029281  00000+0 -41559-2 0  9996",
    "line2": "2 68592  51.9025  63.1779 0001030 114.8182 310.0197 14.76471408  4520"
  },
  {
    "name": "KUIPER-00293",
    "noradId": "68593",
    "line1": "1 68593U 26072W   26193.65781308  .00000023  00000+0  32129-4 0  9992",
    "line2": "2 68593  51.8984  75.5079 0002747 123.8867 236.2357 14.79932641 14993"
  },
  {
    "name": "KUIPER-00294",
    "noradId": "68594",
    "line1": "1 68594U 26072X   26193.80610528  .00007901  00000+0  10919-2 0  9998",
    "line2": "2 68594  51.9013  62.3630 0001826  79.0320 281.0848 14.78839246 15190"
  },
  {
    "name": "KUIPER-00296",
    "noradId": "68595",
    "line1": "1 68595U 26072Y   26193.81360330  .00022853  00000+0  62539-3 0  9992",
    "line2": "2 68595  51.8707  52.9020 0009387 108.8923 251.3082 15.37210713 15321"
  },
  {
    "name": "KUIPER-00297",
    "noradId": "68596",
    "line1": "1 68596U 26072Z   26193.66346545  .00000522  00000+0  10512-3 0  9991",
    "line2": "2 68596  51.9005  75.1815 0001157 129.9647 230.1416 14.76358010 15003"
  },
  {
    "name": "KUIPER-00300",
    "noradId": "68597",
    "line1": "1 68597U 26072AA  26193.04634091  .00001180  00000+0  19858-3 0  9993",
    "line2": "2 68597  51.9038  74.9557 0001873 125.1759 234.9377 14.76473184 14958"
  },
  {
    "name": "KUIPER-00301",
    "noradId": "68598",
    "line1": "1 68598U 26072AB  26193.81228375  .00021352  00000+0  55733-3 0  9998",
    "line2": "2 68598  51.8656  52.8477 0009453 116.7814 243.4141 15.38715616 15324"
  },
  {
    "name": "KUIPER-00304",
    "noradId": "68599",
    "line1": "1 68599U 26072AC  26192.78660423  .00021739  00000+0  57078-3 0  9991",
    "line2": "2 68599  51.8675  57.9829 0011809 112.8231 247.4004 15.38499181 15161"
  },
  {
    "name": "KUIPER-00317",
    "noradId": "68600",
    "line1": "1 68600U 26072AD  26193.02977088  .00002072  00000+0  30049-3 0  9998",
    "line2": "2 68600  51.8983  65.8113 0000871  98.0159 262.0902 14.79962613 15070"
  },
  {
    "name": "KUIPER-00320",
    "noradId": "68601",
    "line1": "1 68601U 26072AE  26192.07896555  .00001951  00000+0  28487-3 0  9990",
    "line2": "2 68601  51.9023  75.0040 0000720 119.4256 240.6779 14.79923590 14869"
  },
  {
    "name": "KUIPER-00299",
    "noradId": "68864",
    "line1": "1 68864U 26095A   26193.24398944  .00000802  00000+0  14476-3 0  9992",
    "line2": "2 68864  51.8995 138.3528 0001554 257.9470 102.1317 14.76472920 11346"
  },
  {
    "name": "KUIPER-00353",
    "noradId": "68865",
    "line1": "1 68865U 26095B   26193.83335647 -.00033184  00000+0 -38118-2 0  9998",
    "line2": "2 68865  51.8990 122.3540 0003070  45.1482 210.6097 14.85350602  5349"
  },
  {
    "name": "KUIPER-00357",
    "noradId": "68866",
    "line1": "1 68866U 26095C   26193.26082740  .00001853  00000+0  27220-3 0  9998",
    "line2": "2 68866  51.9018 132.2842 0001034  84.8005 275.3075 14.79913272 11438"
  },
  {
    "name": "KUIPER-00364",
    "noradId": "68867",
    "line1": "1 68867U 26095D   26193.29186043  .00001883  00000+0  27622-3 0  9992",
    "line2": "2 68867  51.9042 134.6540 0001343 151.6296 208.4740 14.79895412 11403"
  },
  {
    "name": "KUIPER-00375",
    "noradId": "68868",
    "line1": "1 68868U 26095E   26193.83335647 -.00025984  00000+0 -33074-2 0  9996",
    "line2": "2 68868  51.9014 124.0960 0001928 119.3406   3.1167 14.80992454  5474"
  },
  {
    "name": "KUIPER-00433",
    "noradId": "68869",
    "line1": "1 68869U 26095F   26193.25042065  .00001554  00000+0  23276-3 0  9991",
    "line2": "2 68869  51.8997 142.3302 0000905  77.3272 282.7791 14.79943872 11298"
  },
  {
    "name": "KUIPER-00437",
    "noradId": "68870",
    "line1": "1 68870U 26095G   26193.83335647  .00016632  00000+0  43877-3 0  9990",
    "line2": "2 68870  51.8777 118.2980 0008123  45.1736  29.9597 15.38578747  5141"
  },
  {
    "name": "KUIPER-00448",
    "noradId": "68871",
    "line1": "1 68871U 26095H   26193.18840560  .00000740  00000+0  13598-3 0  9994",
    "line2": "2 68871  51.9037 130.7989 0001542 160.9738 199.1281 14.76431060 11443"
  },
  {
    "name": "KUIPER-00459",
    "noradId": "68872",
    "line1": "1 68872U 26095J   26193.83335647 -.02132188  00000+0 -10701+0 0  9997",
    "line2": "2 68872  51.8765 119.8767 0008960  45.9709 273.2798 15.20542278  2984"
  },
  {
    "name": "KUIPER-00468",
    "noradId": "68873",
    "line1": "1 68873U 26095K   26193.83335647 -.00643029  00000+0 -25530-1 0  9995",
    "line2": "2 68873  51.8863 118.6763 0004398  22.7800 245.7839 15.27230075  2259"
  },
  {
    "name": "KUIPER-00476",
    "noradId": "68874",
    "line1": "1 68874U 26095L   26193.20059257  .00014585  00000+0  44139-3 0  9992",
    "line2": "2 68874  51.8778 122.3969 0010258  34.3514 325.8133 15.34373855 11561"
  },
  {
    "name": "KUIPER-00478",
    "noradId": "68875",
    "line1": "1 68875U 26095M   26193.83335647 -.01848008  00000+0 -14396+0 0  9998",
    "line2": "2 68875  51.8887 120.4426 0006711  42.6052  66.1174 15.04435926  4431"
  },
  {
    "name": "KUIPER-00480",
    "noradId": "68876",
    "line1": "1 68876U 26095N   26193.83335647 -.02207197  00000+0 -11466+0 0  9993",
    "line2": "2 68876  51.8815 119.0689 0005223  22.0429  35.8174 15.19556349  2378"
  },
  {
    "name": "KUIPER-00482",
    "noradId": "68877",
    "line1": "1 68877U 26095P   26193.87568626  .00000958  00000+0  16703-3 0  9998",
    "line2": "2 68877  51.9014 126.7597 0000866 232.6772 127.4109 14.76417958 11563"
  },
  {
    "name": "KUIPER-00483",
    "noradId": "68878",
    "line1": "1 68878U 26095Q   26193.86474169  .00000719  00000+0  13282-3 0  9990",
    "line2": "2 68878  51.8990 139.3109 0001492 237.3598 122.7219 14.76519052 11387"
  },
  {
    "name": "KUIPER-00488",
    "noradId": "68879",
    "line1": "1 68879U 26095R   26193.83335647 -.00026758  00000+0 -28097-2 0  9997",
    "line2": "2 68879  51.8961 122.5043 0012541  60.8152 317.0866 14.88818433  4858"
  },
  {
    "name": "KUIPER-00489",
    "noradId": "68880",
    "line1": "1 68880U 26095S   26193.83335647  .00013562  00000+0  43634-3 0  9991",
    "line2": "2 68880  51.8759 119.4863 0012433  38.2262 158.5705 15.32464664  5552"
  },
  {
    "name": "KUIPER-00499",
    "noradId": "68881",
    "line1": "1 68881U 26095T   26193.83335647 -.00050360  00000+0 -35571-2 0  9991",
    "line2": "2 68881  51.8863 121.1868 0007685  56.8796 299.0022 15.04517438  2530"
  },
  {
    "name": "KUIPER-00500",
    "noradId": "68882",
    "line1": "1 68882U 26095U   26193.21897874  .00001767  00000+0  26083-3 0  9993",
    "line2": "2 68882  51.9010 139.9660 0001244  27.3697 332.7331 14.79922545 11326"
  },
  {
    "name": "KUIPER-00502",
    "noradId": "68883",
    "line1": "1 68883U 26095V   26193.83335647 -.01191548  00000+0 -43407-1 0  9994",
    "line2": "2 68883  51.8803 118.2597 0006971  38.6362  52.2389 15.30788109  5268"
  }
]